school_name,address,postal_code,mainlevel_code,longitude,latitude
ADMIRALTY PRIMARY SCHOOL,11   WOODLANDS CIRCLE,738907,PRIMARY,103.800040119743,1.4426347903311
ADMIRALTY SECONDARY SCHOOL,31   WOODLANDS CRESCENT,737916,SECONDARY,103.802398196596,1.44589068910993
AHMAD IBRAHIM PRIMARY SCHOOL,10   YISHUN STREET 11,768643,PRIMARY,103.832942401086,1.43315271543517
AHMAD IBRAHIM SECONDARY SCHOOL,751  YISHUN AVENUE 7,768928,SECONDARY,103.829718690077,1.43605975368804
AI TONG SCHOOL,100  Bright Hill Drive,579646,PRIMARY,103.833020333986,1.3605834338904
ALEXANDRA PRIMARY SCHOOL,2A   Prince Charles Crescent,159016,PRIMARY,103.824424680531,1.29133439161334
ANCHOR GREEN PRIMARY SCHOOL,31   Anchorvale Drive,544969,PRIMARY,103.887165375933,1.39036998654612
ANDERSON PRIMARY SCHOOL,19   ANG MO KIO AVE 9,569785,PRIMARY,103.841411716006,1.38419941907925
ANDERSON SECONDARY SCHOOL,10   ANG MO KIO STREET 53,569206,SECONDARY,103.851554107068,1.37434001701177
ANDERSON SERANGOON JUNIOR COLLEGE,4500 ANG MO KIO AVENUE 6,569843,JUNIOR COLLEGE,103.845885968342,1.37839670972543
ANG MO KIO PRIMARY SCHOOL,20   ANG MO KIO AVENUE 3,569920,PRIMARY,103.839630858752,1.36932176584608
ANG MO KIO SECONDARY SCHOOL,6    ANG MO KIO STREET 22,569362,SECONDARY,103.842154973672,1.36733710171069
ANGLICAN HIGH SCHOOL,600  UPPER CHANGI ROAD,487012,SECONDARY,103.941082513081,1.33058126205128
ANGLO-CHINESE JUNIOR COLLEGE,25   DOVER CLOSE EAST,139745,JUNIOR COLLEGE,103.785358436408,1.30304255193392
ANGLO-CHINESE SCHOOL (BARKER ROAD),60   BARKER ROAD,309919,SECONDARY,103.835772689988,1.31961649151328
ANGLO-CHINESE SCHOOL (INDEPENDENT),121  DOVER ROAD,139650,MIXED LEVELS,103.780363417671,1.30370409257783
ANGLO-CHINESE SCHOOL (JUNIOR),16   WINSTEDT ROAD,227988,PRIMARY,103.840950265464,1.30935041274966
ANGLO-CHINESE SCHOOL (PRIMARY),50   BARKER ROAD,309918,PRIMARY,103.835609732354,1.31837054523521
ANGSANA PRIMARY SCHOOL,3    Tampines Street 22,529366,PRIMARY,103.951482746538,1.34828400809545
ASSUMPTION ENGLISH SCHOOL,622  UPPER BUKIT TIMAH ROAD,678117,SECONDARY,103.766687526556,1.36838160662857
ASSUMPTION PATHWAY SCHOOL,30   Cashew Road,679697,SECONDARY,103.765959130581,1.3696707043227
BARTLEY SECONDARY SCHOOL,10   JALAN BUNGA RAMPAI,538403,SECONDARY,103.882806211705,1.33995415587811
BEACON PRIMARY SCHOOL,36   Bukit Panjang Ring Road,679944,PRIMARY,103.773632022975,1.38394936211823
BEATTY SECONDARY SCHOOL,1    TOA PAYOH NORTH,318990,SECONDARY,103.852280842345,1.341790284928
BEDOK GREEN PRIMARY SCHOOL,1    BEDOK SOUTH AVE 2,469317,PRIMARY,103.937878976352,1.32344593287992
BEDOK GREEN SECONDARY SCHOOL,360  BEDOK NORTH AVE 3,469722,SECONDARY,103.935028383346,1.33451947288431
BEDOK SOUTH SECONDARY SCHOOL,1    JALAN LANGGAR BEDOK,468585,SECONDARY,103.950989139261,1.32513655159184
BEDOK VIEW SECONDARY SCHOOL,6    BEDOK SOUTH AVENUE 3,469293,SECONDARY,103.943776245024,1.32415704029686
BENDEMEER PRIMARY SCHOOL,91   BENDEMEER ROAD,339948,PRIMARY,103.865404167629,1.32181250780475
BENDEMEER SECONDARY SCHOOL,1    ST WILFRED ROAD,327919,SECONDARY,103.860518349544,1.32434843114787
BLANGAH RISE PRIMARY SCHOOL,91   TELOK BLANGAH HEIGHTS,109100,PRIMARY,103.808628535239,1.27612047924037
BOON LAY GARDEN PRIMARY SCHOOL,20   BOON LAY DRIVE,649930,PRIMARY,103.712858381937,1.34284013791617
BOON LAY SECONDARY SCHOOL,11   JURONG WEST STREET 65,648354,SECONDARY,103.701891453912,1.34272216334333
BOWEN SECONDARY SCHOOL,2    LORONG NAPIRI,547529,SECONDARY,103.877659577677,1.37035994436209
BROADRICK SECONDARY SCHOOL,61   DAKOTA CRESCENT,399935,SECONDARY,103.886917922608,1.30705061123433
BUKIT BATOK SECONDARY SCHOOL,50   BUKIT BATOK WEST AVE 8,658962,SECONDARY,103.74087370482,1.34849111079052
BUKIT MERAH SECONDARY SCHOOL,10   LENGKOK BAHRU,159050,SECONDARY,103.813438929393,1.28569283064288
BUKIT PANJANG GOVT. HIGH SCHOOL,7    CHOA CHU KANG AVE 4,689809,SECONDARY,103.738361221869,1.38224243360043
BUKIT PANJANG PRIMARY SCHOOL,109  CASHEW ROAD,679676,PRIMARY,103.769417337654,1.37350089986584
BUKIT TIMAH PRIMARY SCHOOL,111  Lorong Kismis,598112,PRIMARY,103.766855344779,1.3377498622588
BUKIT VIEW PRIMARY SCHOOL,18   BUKIT BATOK STREET 21,659634,PRIMARY,103.75366641455,1.34586054788695
BUKIT VIEW SECONDARY SCHOOL,16   BUKIT BATOK STREET 21,659633,SECONDARY,103.752226593984,1.3457330554294
CANBERRA PRIMARY SCHOOL,21   ADMIRALTY DRIVE,757714,PRIMARY,103.815858858929,1.45125024371543
CANBERRA SECONDARY SCHOOL,51   SEMBAWANG DRIVE,757699,SECONDARY,103.814203583818,1.45319086315972
CANOSSA CATHOLIC PRIMARY SCHOOL,1    Sallim Road,387621,PRIMARY,103.882227964852,1.32664424544839
CANTONMENT PRIMARY SCHOOL,1    Cantonment Close,088256,PRIMARY,103.839962631748,1.27547252623201
CASUARINA PRIMARY SCHOOL,30   PASIR RIS ST 41,518935,PRIMARY,103.957020286115,1.37246063927999
CATHOLIC HIGH SCHOOL,9    BISHAN STREET 22,579767,MIXED LEVELS,103.844874676599,1.3547230747166
CATHOLIC JUNIOR COLLEGE,129  WHITLEY ROAD,297822,JUNIOR COLLEGE,103.835028842353,1.32455605783219
CEDAR GIRLS' SECONDARY SCHOOL,1    CEDAR AVENUE,349692,SECONDARY,103.873933064886,1.33375800216334
CEDAR PRIMARY SCHOOL,15   CEDAR AVENUE,349700,PRIMARY,103.87562006259,1.33566084356265
CHANGKAT CHANGI SECONDARY SCHOOL,23   SIMEI ST 3,529894,SECONDARY,103.953245525564,1.33950630072876
CHANGKAT PRIMARY SCHOOL,11   SIMEI ST 3,529896,PRIMARY,103.952080114035,1.34023163951633
CHIJ (KATONG) PRIMARY,17   MARTIA ROAD,424821,PRIMARY,103.911105620496,1.30648535277087
CHIJ (KELLOCK),1    Bukit Teresa Road,099757,PRIMARY,103.828157564896,1.275022722964
CHIJ KATONG CONVENT,346  MARINE TERRACE,449150,SECONDARY,103.917144350028,1.30644268034894
CHIJ OUR LADY OF GOOD COUNSEL,2C   Burghley Drive,558979,PRIMARY,103.864009397373,1.35742952269615
CHIJ OUR LADY OF THE NATIVITY,1257 UPPER SERANGOON ROAD,534793,PRIMARY,103.897575728303,1.37330297140128
CHIJ OUR LADY QUEEN OF PEACE,4    Chestnut Drive,679287,PRIMARY,103.767412204602,1.366603668561
CHIJ PRIMARY (TOA PAYOH),628  Lorong 1 Toa Payoh,319765,PRIMARY,103.841847263786,1.33275264711587
CHIJ SECONDARY (TOA PAYOH),626  LORONG 1 TOA PAYOH,319764,SECONDARY,103.843271625083,1.33246079948303
CHIJ ST. JOSEPH'S CONVENT,62   SENGKANG EAST WAY,548595,SECONDARY,103.902464991543,1.39175222260369
CHIJ ST. NICHOLAS GIRLS' SCHOOL,501  ANG MO KIO STREET 13,569405,MIXED LEVELS,103.834253269436,1.37347687878916
CHIJ ST. THERESA'S CONVENT,160  LOWER DELTA ROAD,099138,SECONDARY,103.822440701642,1.27535177510054
CHONGFU SCHOOL,170  YISHUN AVENUE 6,768959,PRIMARY,103.839309173817,1.43839562897006
CHONGZHENG PRIMARY SCHOOL,1    TAMPINES STREET 21,529392,PRIMARY,103.951317297552,1.35061130568554
CHRIST CHURCH SECONDARY SCHOOL,20   WOODLANDS DRIVE 17,737924,SECONDARY,103.793451105242,1.42656780901455
CHUA CHU KANG PRIMARY SCHOOL,20   CHOA CHU KANG AVENUE 2,689905,PRIMARY,103.741832917421,1.37775890093367
CHUA CHU KANG SECONDARY SCHOOL,3    TECK WHYE CRESCENT,688845,SECONDARY,103.751878290333,1.38319029263484
CHUNG CHENG HIGH SCHOOL (MAIN),50   GOODMAN ROAD,439012,SECONDARY,103.891653229373,1.30509154753048
CHUNG CHENG HIGH SCHOOL (YISHUN),11   YISHUN STREET 61,768547,SECONDARY,103.837390782849,1.41922603586175
CLEMENTI PRIMARY SCHOOL,8    CLEMENTI AVE 3,129903,PRIMARY,103.763144493687,1.31506321827875
CLEMENTI TOWN SECONDARY SCHOOL,10   CLEMENTI AVE 3,129904,SECONDARY,103.762020598524,1.31553912945073
COMMONWEALTH SECONDARY SCHOOL,698  WEST COAST ROAD,608784,SECONDARY,103.745637393049,1.31920395934801
COMPASSVALE PRIMARY SCHOOL,21 COMPASSVAE STREET,059984,PRIMARY,103.847424110235,1.28859134761324
COMPASSVALE SECONDARY SCHOOL,51   COMPASSVALE CRESCENT,545083,SECONDARY,103.899847164494,1.39614083952009
CONCORD PRIMARY SCHOOL,3    CHOA CHU KANG AVE 4,689814,PRIMARY,103.736554295636,1.38026516111464
CORPORATION PRIMARY SCHOOL,31   JURONG WEST STREET 24,648347,PRIMARY,103.707578404944,1.35148548772662
CRESCENT GIRLS' SCHOOL,357  TANGLIN ROAD,247961,SECONDARY,103.817544461755,1.29331947077104
CREST SECONDARY SCHOOL,561  JURONG EAST STREET 24,609561,SECONDARY,103.742628105304,1.3431198045076
DAMAI PRIMARY SCHOOL,52   BEDOK RESERVOIR CRESCENT,479226,PRIMARY,103.921286435321,1.33524602829747
DAMAI SECONDARY SCHOOL,4800 BEDOK RESERVOIR ROAD,479229,SECONDARY,103.927091653438,1.33692798510393
DAZHONG PRIMARY SCHOOL,35   BUKIT BATOK STREET 31,659441,PRIMARY,103.74847210784,1.3591797447277
DE LA SALLE SCHOOL,11   Choa Chu Kang St 52,689285,PRIMARY,103.743201812831,1.3947078296399
DEYI SECONDARY SCHOOL,1    ANG MO KIO STREET 42,569277,SECONDARY,103.852545772422,1.36599702567717
DUNEARN SECONDARY SCHOOL,21   BUKIT BATOK WEST AVENUE 2,659204,SECONDARY,103.74472109107,1.36357900792871
DUNMAN HIGH SCHOOL,10   TANJONG RHU ROAD,436895,MIXED LEVELS,103.88294155989,1.29996216014962
DUNMAN SECONDARY SCHOOL,21   TAMPINES STREET 45,529093,SECONDARY,103.956213906966,1.36065258337022
EAST SPRING PRIMARY SCHOOL,31   TAMPINES ST 33,529258,PRIMARY,103.961676849165,1.35268400746357
EAST SPRING SECONDARY SCHOOL,30   TAMPINES STREET 34,529231,SECONDARY,103.960640700298,1.35622508992581
EDGEFIELD PRIMARY SCHOOL,41   EDGEFIELD PLAINS,828869,PRIMARY,103.907847599114,1.40009139510996
EDGEFIELD SECONDARY SCHOOL,36   PUNGGOL FIELD,828814,SECONDARY,103.902687385465,1.40059309981824
ELIAS PARK PRIMARY SCHOOL,11   PASIR RIS STREET 52,518866,PRIMARY,103.945289416873,1.37505696315817
ENDEAVOUR PRIMARY SCHOOL,10   Admiralty Link,757521,PRIMARY,103.817174701639,1.45388170417263
EUNOIA JUNIOR COLLEGE,2    Sin Ming Place,573838,JUNIOR COLLEGE,103.841286169122,1.36213757183547
EVERGREEN PRIMARY SCHOOL,31   WOODLANDS CIRCLE,738908,PRIMARY,103.794545295922,1.44414835451585
EVERGREEN SECONDARY SCHOOL,11   WOODLANDS STREET 83,738489,SECONDARY,103.794137756171,1.44149131273737
FAIRFIELD METHODIST SCHOOL (PRIMARY),100  DOVER ROAD,139648,PRIMARY,103.785455606827,1.30100441916733
FAIRFIELD METHODIST SCHOOL (SECONDARY),102  DOVER ROAD,139649,SECONDARY,103.784099647149,1.30163374395823
FARRER PARK PRIMARY SCHOOL,2    FARRER PARK ROAD,217567,PRIMARY,103.850766402965,1.31236867681371
FENGSHAN PRIMARY SCHOOL,307  BEDOK NORTH ROAD,469680,PRIMARY,103.931710293058,1.32980598760785
FERN GREEN PRIMARY SCHOOL,70   Fernvale Link,797538,PRIMARY,103.880330305684,1.39726966050479
FERNVALE PRIMARY SCHOOL,1    Fernvale Lane,797701,PRIMARY,103.874445458032,1.39030227963797
FIRST TOA PAYOH PRIMARY SCHOOL,7    LORONG 8 TOA PAYOH,319252,PRIMARY,103.855529906182,1.34032299499938
FRONTIER PRIMARY SCHOOL,20   Jurong West Street 61,648200,PRIMARY,103.69970173931,1.33641298743234
FUCHUN PRIMARY SCHOOL,23   WOODLANDS AVENUE 1,739063,PRIMARY,103.778192944298,1.43047990810126
FUHUA PRIMARY SCHOOL,65   JURONG EAST STREET 13,609647,PRIMARY,103.736089481883,1.33659726465816
FUHUA SECONDARY SCHOOL,5    JURONG WEST STREET 41,649410,SECONDARY,103.72652089832,1.34701408913756
GAN ENG SENG PRIMARY SCHOOL,100  REDHILL CLOSE,158901,PRIMARY,103.815547410064,1.28559516494962
GAN ENG SENG SCHOOL,1    HENDERSON ROAD,159561,SECONDARY,103.823733673089,1.28907114485773
GEYLANG METHODIST SCHOOL (PRIMARY),4    Geylang East Central,389706,PRIMARY,103.883628501601,1.31814416827374
GEYLANG METHODIST SCHOOL (SECONDARY),2    GEYLANG EAST CENTRAL,389705,SECONDARY,103.882661129303,1.31764900474601
GONGSHANG PRIMARY SCHOOL,1    TAMPINES STREET 42,529176,PRIMARY,103.949144797277,1.35711606790292
GREENDALE PRIMARY SCHOOL,50   Edgedale Plains,828848,PRIMARY,103.91233462071,1.39648195114256
GREENDALE SECONDARY SCHOOL,51   EDGEDALE PLAINS,828866,SECONDARY,103.91170014084,1.39696019936894
GREENRIDGE PRIMARY SCHOOL,11   JELAPANG ROAD,677744,PRIMARY,103.767794469258,1.3858892193692
GREENRIDGE SECONDARY SCHOOL,32   BUKIT PANJANG RING ROAD,679938,SECONDARY,103.773828466913,1.38186433722811
GREENWOOD PRIMARY SCHOOL,11   WOODLANDS  DR  62,737942,PRIMARY,103.804725587384,1.43989958331782
GUANGYANG SECONDARY SCHOOL,8    BISHAN STREET 12,579807,SECONDARY,103.850208933626,1.34440856042912
HAI SING CATHOLIC SCHOOL,9    PASIR RIS DRIVE 6,519421,SECONDARY,103.954544548905,1.3743371707478
HAIG GIRLS' SCHOOL,51   Koon Seng Road,427072,PRIMARY,103.902902557195,1.31194344271383
HENRY PARK PRIMARY SCHOOL,1    HOLLAND GROVE ROAD,278790,PRIMARY,103.784296227747,1.31667646178347
HILLGROVE SECONDARY SCHOOL,10   BUKIT BATOK STREET 52,659250,SECONDARY,103.752986488399,1.35273576615912
HOLY INNOCENTS' HIGH SCHOOL,1191 UPPER SERANGOON ROAD,534786,SECONDARY,103.896398814264,1.37154508822261
HOLY INNOCENTS' PRIMARY SCHOOL,5    Lorong Low Koon,536451,PRIMARY,103.894114899795,1.36693830877349
HONG WEN SCHOOL,30   TOWNER ROAD,327829,PRIMARY,103.857628468881,1.32175999964553
HORIZON PRIMARY SCHOOL,61   Edgedale Plains,828819,PRIMARY,103.913404855665,1.399550034492
HOUGANG PRIMARY SCHOOL,1    HOUGANG ST 93,538692,PRIMARY,103.879472337592,1.37571530699875
HOUGANG SECONDARY SCHOOL,2    HOUGANG STREET 93,534256,SECONDARY,103.882533963338,1.37764019332164
HUA YI SECONDARY SCHOOL,60   JURONG WEST ST 42,649371,SECONDARY,103.721832320169,1.35234365488339
HUAMIN PRIMARY SCHOOL,21   YISHUN AVENUE 11,768857,PRIMARY,103.844240226564,1.42697284512936
HWA CHONG INSTITUTION,661  BUKIT TIMAH ROAD,269734,MIXED LEVELS,103.803290365022,1.3263580622144
INNOVA PRIMARY SCHOOL,80   Woodlands Drive 17,737888,PRIMARY,103.790607539185,1.42896700684852
JIEMIN PRIMARY SCHOOL,2    YISHUN STREET 71,768515,PRIMARY,103.830425490093,1.42768847665227
JING SHAN PRIMARY SCHOOL,5    ANG MO KIO ST 52,560352,PRIMARY,103.850864037677,1.36442474404862
JUNYUAN PRIMARY SCHOOL,2    Tampines Street 91,528906,PRIMARY,103.939221709073,1.34787074766746
JUNYUAN SECONDARY SCHOOL,11   TAMPINES STREET 84,528933,SECONDARY,103.933886165824,1.35361315263537
JURONG PIONEER JUNIOR COLLEGE,21   Teck Whye Walk,688258,JUNIOR COLLEGE,103.75437461519,1.38437406410733
JURONG PRIMARY SCHOOL,320  JURONG EAST Street 32,609476,PRIMARY,103.733156566858,1.34843859698946
JURONG SECONDARY SCHOOL,31   YUAN CHING ROAD,618652,SECONDARY,103.723952961648,1.33002032220942
JURONG WEST PRIMARY SCHOOL,30   JURONG WEST ST 61,648368,PRIMARY,103.698803732244,1.33917519796104
JURONG WEST SECONDARY SCHOOL,61   JURONG WEST STREET 65,648348,SECONDARY,103.702098904443,1.33525634688323
JURONGVILLE SECONDARY SCHOOL,202  JURONG EAST AVENUE 1,609790,SECONDARY,103.728907710089,1.35128862770284
JUYING SECONDARY SCHOOL,33   JURONG WEST STREET 91,649038,SECONDARY,103.687310264575,1.3387227734133
KEMING PRIMARY SCHOOL,90   BUKIT BATOK EAST AVENUE 6,659762,PRIMARY,103.756449399351,1.34552849960874
KENT RIDGE SECONDARY SCHOOL,147  WEST COAST ROAD,127368,SECONDARY,103.764889617566,1.30122773426098
KHENG CHENG SCHOOL,15   LORONG 3 TOA PAYOH,319580,PRIMARY,103.847148501824,1.3373381935639
KONG HWA SCHOOL,350  GUILLEMARD ROAD,399772,PRIMARY,103.888352029067,1.31099674009193
KRANJI PRIMARY SCHOOL,11   CHOA CHU KANG STREET 54,689189,PRIMARY,103.747362720939,1.39356050497104
KRANJI SECONDARY SCHOOL,61   CHOA CHU KANG STREET 51,689333,SECONDARY,103.741190664845,1.39005109871311
KUO CHUAN PRESBYTERIAN PRIMARY SCHOOL,8    BISHAN STREET 13,579793,PRIMARY,103.855018233311,1.34939813669536
KUO CHUAN PRESBYTERIAN SECONDARY SCHOOL,10   BISHAN STREET 13,579795,SECONDARY,103.854983746416,1.35017129930314
LAKESIDE PRIMARY SCHOOL,161  Corporation Walk,618310,PRIMARY,103.718089546664,1.33820397704287
LIANHUA PRIMARY SCHOOL,2    BUKIT BATOK STREET 52,659243,PRIMARY,103.754165828711,1.35424191127295
LOYANG VIEW SECONDARY SCHOOL,12   PASIR RIS STREET 11,519073,SECONDARY,103.956944585725,1.36658417167238
MAHA BODHI SCHOOL,10   UBI AVENUE 1,408931,PRIMARY,103.901306904157,1.32858023873554
MANJUSRI SECONDARY SCHOOL,20   UBI AVENUE 1,408940,SECONDARY,103.901719963831,1.32747123084846
MARIS STELLA HIGH SCHOOL,25   MOUNT VERNON ROAD,368051,MIXED LEVELS,103.87776938227,1.34139822375509
MARSILING PRIMARY SCHOOL,31   WOODLANDS CENTRE ROAD,738927,PRIMARY,103.773643013846,1.43383904037059
MARSILING SECONDARY SCHOOL,12   MARSILING ROAD,739110,SECONDARY,103.776008090454,1.43664424769955
MARYMOUNT CONVENT SCHOOL,20   Marymount Road,297754,PRIMARY,103.839811736775,1.34043840661368
MAYFLOWER PRIMARY SCHOOL,200  Ang Mo Kio Avenue 5,569878,PRIMARY,103.843252803742,1.37637683547682
MAYFLOWER SECONDARY SCHOOL,2    ANG MO KIO STREET 21,569384,SECONDARY,103.835360726863,1.36827266209722
MEE TOH SCHOOL,21   EDGEDALE PLAINS,828867,PRIMARY,103.90857257736,1.39485356081865
MERIDIAN PRIMARY SCHOOL,20   PASIR RIS ST 71,518798,PRIMARY,103.934953276155,1.37550677054835
MERIDIAN SECONDARY SCHOOL,31   PASIR RIS STREET 51,518901,SECONDARY,103.948972483629,1.3672468492013
METHODIST GIRLS' SCHOOL (PRIMARY),11   Blackmore Drive,599986,PRIMARY,103.783382114018,1.33266213599636
METHODIST GIRLS' SCHOOL (SECONDARY),11   BLACKMORE DRIVE,599986,SECONDARY,103.783382114018,1.33266213599636
MILLENNIA INSTITUTE,60   Bukit Batok West Avenue 8,658965,CENTRALISED INSTITUTE,103.741593577684,1.35031939200985
MONTFORT JUNIOR SCHOOL,52   HOUGANG AVENUE 8,538786,PRIMARY,103.889741457901,1.37362445234082
MONTFORT SECONDARY SCHOOL,50   HOUGANG AVENUE 8,538785,SECONDARY,103.888928372577,1.37396131656912
NAN CHIAU HIGH SCHOOL,20   ANCHORVALE LINK,545079,SECONDARY,103.890004423764,1.38879582498399
NAN CHIAU PRIMARY SCHOOL,50   ANCHORVALE LINK,545080,PRIMARY,103.891180928186,1.39221149906592
NAN HUA HIGH SCHOOL,41   CLEMENTI AVENUE 1,129956,SECONDARY,103.768561446725,1.30809529518605
NAN HUA PRIMARY SCHOOL,30   Jalan Lempeng,128806,PRIMARY,103.761095065761,1.31920159956387
NANYANG GIRLS' HIGH SCHOOL,2    LINDEN DRIVE,288683,SECONDARY,103.802420979943,1.33058326666479
NANYANG JUNIOR COLLEGE,128  SERANGOON AVENUE 3,556111,JUNIOR COLLEGE,103.866498721912,1.35028314949236
NANYANG PRIMARY SCHOOL,52   KING'S ROAD,268097,PRIMARY,103.807681852799,1.32107094241153
NATIONAL JUNIOR COLLEGE,37   HILLCREST ROAD,288913,MIXED LEVELS,103.804110905425,1.33029291072172
NAVAL BASE PRIMARY SCHOOL,7    YISHUN AVE 4,769028,PRIMARY,103.839100590207,1.41590195697649
NAVAL BASE SECONDARY SCHOOL,901  YISHUN RING ROAD,768689,SECONDARY,103.831050390247,1.41937881620441
NEW TOWN PRIMARY SCHOOL,300  Tanglin Halt Road,148812,PRIMARY,103.799964819895,1.29981138884057
NEW TOWN SECONDARY SCHOOL,1020 DOVER ROAD,139657,SECONDARY,103.77318863421,1.30977590011357
NGEE ANN PRIMARY SCHOOL,344  MARINE TERRACE,449149,PRIMARY,103.917570005713,1.30553224180437
NGEE ANN SECONDARY SCHOOL,1    TAMPINES STREET 32,529283,SECONDARY,103.956747262496,1.35447525755806
NORTH SPRING PRIMARY SCHOOL,1    RIVERVALE STREET,545088,PRIMARY,103.903202683028,1.38706146494859
NORTH VIEW PRIMARY SCHOOL,210  YISHUN AVENUE 6,768960,PRIMARY,103.848378442893,1.42745159462566
NORTH VISTA PRIMARY SCHOOL,20   Compassvale Link,544974,PRIMARY,103.89626457548,1.38255066171151
NORTH VISTA SECONDARY SCHOOL,11   RIVERVALE LINK,545081,SECONDARY,103.899188813886,1.381131285358
NORTHBROOKS SECONDARY SCHOOL,585  YISHUN RING ROAD,768692,SECONDARY,103.845147332528,1.42081285020652
NORTHLAND PRIMARY SCHOOL,15   YISHUN AVENUE 4,769026,PRIMARY,103.840792923345,1.42130404159807
NORTHLAND SECONDARY SCHOOL,3    YISHUN STREET 22,768578,SECONDARY,103.840104687784,1.43580183362637
NORTHLIGHT SCHOOL,151  Towner Road,327830,SECONDARY,103.85575955353,1.3191002158167
NORTHOAKS PRIMARY SCHOOL,61   Sembawang Drive,757622,PRIMARY,103.814075611175,1.45732867302094
NORTHSHORE PRIMARY SCHOOL,30   Northshore Drive,828671,PRIMARY,103.905147201163,1.41842322079348
NUS HIGH SCHOOL OF MATHEMATICS AND SCIENCE,20   Clementi Avenue 1,129957,MIXED LEVELS,103.769365156929,1.30656448055686
OASIS PRIMARY SCHOOL,71   Edgefield Plains,828716,PRIMARY,103.911200193835,1.40507184758584
OPERA ESTATE PRIMARY SCHOOL,48   FIDELIO STREET,458436,PRIMARY,103.923752668632,1.31996876377748
ORCHID PARK SECONDARY SCHOOL,10   YISHUN STREET 81,768454,SECONDARY,103.837859241343,1.41532032779634
OUTRAM SECONDARY SCHOOL,3    YORK HILL,168622,SECONDARY,103.837127264403,1.28651357464735
PALM VIEW PRIMARY SCHOOL,150  Compassvale Bow,544822,PRIMARY,103.891354675017,1.38376923022123
PARK VIEW PRIMARY SCHOOL,60   PASIR RIS DRIVE 1,519524,PRIMARY,103.9392021807,1.37801687647812
PASIR RIS CREST SECONDARY SCHOOL,11   PASIR RIS STREET 41,518934,SECONDARY,103.959728202919,1.37284060102246
PASIR RIS PRIMARY SCHOOL,5    PASIR RIS STREET 21,518968,PRIMARY,103.962922699031,1.37245132722087
PASIR RIS SECONDARY SCHOOL,390  TAMPINES STREET 21,529400,SECONDARY,103.948962626204,1.35422732653396
PAYA LEBAR METHODIST GIRLS' SCHOOL (PRIMARY),298  LORONG AH SOO,536741,PRIMARY,103.884846876112,1.3502545600894
PAYA LEBAR METHODIST GIRLS' SCHOOL (SECONDARY),296  LOR AH SOO,536742,SECONDARY,103.885120050588,1.35096755912522
PEI CHUN PUBLIC SCHOOL,16   LORONG 7 TOA PAYOH,319320,PRIMARY,103.855341310212,1.33677864390672
PEI HWA PRESBYTERIAN PRIMARY SCHOOL,7    PEI WAH AVENUE,597610,PRIMARY,103.776250903095,1.33807302121151
PEI HWA SECONDARY SCHOOL,21   FERNVALE LINK,797702,SECONDARY,103.878461745339,1.39037504993234
PEI TONG PRIMARY SCHOOL,15   CLEMENTI AVENUE 5,129857,PRIMARY,103.767438999533,1.31666529308968
PEICAI SECONDARY SCHOOL,10   SERANGOON AVENUE 4,556094,SECONDARY,103.870010749055,1.35951583222214
PEIRCE SECONDARY SCHOOL,10   SIN MING WALK,575566,SECONDARY,103.83021606804,1.36665944653812
PEIYING PRIMARY SCHOOL,651  YISHUN RING ROAD,768687,PRIMARY,103.830143209875,1.41741627551251
PIONEER PRIMARY SCHOOL,23   JURONG WEST STREET 81,649076,PRIMARY,103.695003812477,1.34883617453427
POI CHING SCHOOL,21   TAMPINES STREET 71,529067,PRIMARY,103.935246486174,1.35765121877679
PRESBYTERIAN HIGH SCHOOL,5209 ANG MO KIO AVENUE 6,569845,SECONDARY,103.842382968794,1.38175437421949
PRINCESS ELIZABETH PRIMARY SCHOOL,30   BUKIT BATOK WEST AVENUE 3,659163,PRIMARY,103.740719208011,1.34919098857585
PUNGGOL COVE PRIMARY SCHOOL,52   Sumang Walk,828674,PRIMARY,103.89890448429,1.41158455562454
PUNGGOL GREEN PRIMARY SCHOOL,98   Punggol Walk,828772,PRIMARY,103.898794262307,1.40172590450528
PUNGGOL PRIMARY SCHOOL,61   HOUGANG AVENUE 8,538787,PRIMARY,103.894667159512,1.37820062547641
PUNGGOL SECONDARY SCHOOL,51   EDGEFIELD PLAINS,828870,SECONDARY,103.909213706482,1.40205738421399
PUNGGOL VIEW PRIMARY SCHOOL,9    Punggol Place,828845,PRIMARY,103.905299026568,1.40505250226058
QIFA PRIMARY SCHOOL,50   WEST COAST AVENUE,128104,PRIMARY,103.756629101811,1.3132658326807
QIHUA PRIMARY SCHOOL,5    WOODLANDS STREET 81,738525,PRIMARY,103.788339762066,1.44203596557592
QUEENSTOWN PRIMARY SCHOOL,310  MARGARET DR,149303,PRIMARY,103.807648475656,1.29552905587752
QUEENSTOWN SECONDARY SCHOOL,1    STRATHMORE ROAD,148800,SECONDARY,103.813190980055,1.29352126774652
QUEENSWAY SECONDARY SCHOOL,2A   MARGARET DRIVE,149295,SECONDARY,103.802207291625,1.30022271592188
RADIN MAS PRIMARY SCHOOL,1    BUKIT PURMEI AVENUE,099840,PRIMARY,103.824115781658,1.27489701529771
RAFFLES GIRLS' PRIMARY SCHOOL,21   Hillcrest Road,289072,PRIMARY,103.806397828938,1.33004178068277
RAFFLES GIRLS' SCHOOL (SECONDARY),2    BRADDELL RISE,318871,SECONDARY,103.84313404727,1.34217479932295
RAFFLES INSTITUTION,1    RAFFLES INSTITUTION LANE,575954,MIXED LEVELS,103.845875110532,1.34618775847486
RED SWASTIKA SCHOOL,350  BEDOK NORTH AVENUE 3,469719,PRIMARY,103.934317528484,1.33405659580859
REGENT SECONDARY SCHOOL,50   CHOA CHU KANG NORTH 5,689621,SECONDARY,103.751034411529,1.39327908335682
RIVER VALLEY HIGH SCHOOL,6    BOON LAY AVENUE,649961,MIXED LEVELS,103.708190688947,1.34459584223718
RIVER VALLEY PRIMARY SCHOOL,2    RIVER VALLEY GREEN,237993,PRIMARY,103.836018941571,1.29418347842837
RIVERSIDE PRIMARY SCHOOL,110  Woodlands Crescent,737803,PRIMARY,103.801889031334,1.44700426493785
RIVERSIDE SECONDARY SCHOOL,3    WOODLANDS STREET 81,738524,SECONDARY,103.78830823641,1.44110157139127
RIVERVALE PRIMARY SCHOOL,80   RIVERVALE DRIVE,545092,PRIMARY,103.904545253288,1.39333506298213
ROSYTH SCHOOL,21   Serangoon North Avenue 4,555855,PRIMARY,103.87477170399,1.3728583654058
RULANG PRIMARY SCHOOL,6    JURONG WEST STREET 52,649295,PRIMARY,103.718457955487,1.34673868889096
"SCHOOL OF SCIENCE AND TECHNOLOGY, SINGAPORE",1    Technology Drive,138572,SECONDARY,103.774011529322,1.31292810600277
"SCHOOL OF THE ARTS, SINGAPORE",1    Zubir Said Drive,227968,MIXED LEVELS,103.848687419363,1.29936480411316
SEMBAWANG PRIMARY SCHOOL,10   SEMBAWANG DRIVE,757715,PRIMARY,103.821152676215,1.4457453096024
SEMBAWANG SECONDARY SCHOOL,30   SEMBAWANG CRESCENT,757704,SECONDARY,103.816843258118,1.44531502131387
SENG KANG PRIMARY SCHOOL,21   COMPASSVALE WALK,545166,PRIMARY,103.899527879229,1.38925044778224
SENG KANG SECONDARY SCHOOL,10   COMPASSVALE LANE,545090,SECONDARY,103.898365036709,1.38659683143747
SENGKANG GREEN PRIMARY SCHOOL,15   Fernvale Road,797636,PRIMARY,103.874984869551,1.3925400930811
SERANGOON GARDEN SECONDARY SCHOOL,21   SERANGOON NORTH AVENUE 1,555889,SECONDARY,103.869270301476,1.36932570490947
SERANGOON SECONDARY SCHOOL,11   UPPER SERANGOON VIEW,534237,SECONDARY,103.902138740699,1.37465538827443
SHUQUN PRIMARY SCHOOL,8    JURONG WEST STREET 51,649332,PRIMARY,103.721559387203,1.34686967259067
SI LING PRIMARY SCHOOL,61   WOODLANDS AVENUE 1,739067,PRIMARY,103.786035065192,1.43240935732525
SINGAPORE CHINESE GIRLS' PRIMARY SCHOOL,190  DUNEARN ROAD,309437,PRIMARY,103.828164966953,1.3206340835184
SINGAPORE CHINESE GIRLS' SCHOOL,190  DUNEARN ROAD,309437,SECONDARY,103.828164966953,1.3206340835184
SINGAPORE SPORTS SCHOOL,1    Champions Way,737913,MIXED LEVELS,103.789444793951,1.42641140556342
SOUTH VIEW PRIMARY SCHOOL,6    Choa Chu Kang Central,689762,PRIMARY,103.747153671,1.38143123987698
SPECTRA SECONDARY SCHOOL,1    WOODLANDS DRIVE 64,737758,SECONDARY,103.804100467487,1.43703750789961
SPRINGDALE PRIMARY SCHOOL,71   Anchorvale Link,544799,PRIMARY,103.889416413501,1.39528544463377
SPRINGFIELD SECONDARY SCHOOL,30   TAMPINES AVENUE 8,529593,SECONDARY,103.930354460693,1.34957303471476
ST. ANDREW'S JUNIOR COLLEGE,5    Sorby Adams Drive,357691,JUNIOR COLLEGE,103.863576377056,1.33306515740956
ST. ANDREW'S JUNIOR SCHOOL,2    FRANCIS THOMAS DRIVE,359337,PRIMARY,103.865117134385,1.33140255308868
ST. ANDREW'S SECONDARY SCHOOL,15   FRANCIS THOMAS DRIVE,359342,SECONDARY,103.866249138562,1.33069360968075
ST. ANTHONY'S CANOSSIAN PRIMARY SCHOOL,1602 BEDOK NORTH AVE 4,469701,PRIMARY,103.941234868202,1.3347253730189
ST. ANTHONY'S CANOSSIAN SECONDARY SCHOOL,1600 BEDOK NORTH AVENUE 4,469700,SECONDARY,103.941977166932,1.33466313498855
ST. ANTHONY'S PRIMARY SCHOOL,30   Bukit Batok St 32,659401,PRIMARY,103.749251919049,1.36411948475833
ST. GABRIEL'S PRIMARY SCHOOL,220  Lorong Chuan,556742,PRIMARY,103.862309899986,1.34930766795555
ST. GABRIEL'S SECONDARY SCHOOL,24   SERANGOON AVENUE 1,556140,SECONDARY,103.876094163287,1.34648798732177
ST. HILDA'S PRIMARY SCHOOL,2    Tampines Ave 3,529706,PRIMARY,103.937016363397,1.34967978969837
ST. HILDA'S SECONDARY SCHOOL,2    TAMPINES STREET 82,528986,SECONDARY,103.937608032148,1.34973922385379
ST. JOSEPH'S INSTITUTION,38   MALCOLM ROAD,308274,MIXED LEVELS,103.828498974985,1.32365313490152
ST. JOSEPH'S INSTITUTION JUNIOR,3    ESSEX ROAD,309331,PRIMARY,103.845633334522,1.31781476118551
ST. MARGARET'S SCHOOL (PRIMARY),136 SOPHIA ROAD,228197,PRIMARY,103.845820266438,1.30414407358332
ST. MARGARET'S SCHOOL (SECONDARY),111  FARRER ROAD,259240,SECONDARY,103.809602215402,1.31977464050584
ST. PATRICK'S SCHOOL,490  EAST COAST ROAD,429058,SECONDARY,103.917638193713,1.30788341871801
ST. STEPHEN'S SCHOOL,20   SIGLAP VIEW,455789,PRIMARY,103.917258129598,1.31878997295135
SWISS COTTAGE SECONDARY SCHOOL,3    BUKIT BATOK STREET 34,659322,SECONDARY,103.750396136688,1.36471742697475
TAMPINES MERIDIAN JUNIOR COLLEGE,21   Pasir Ris Street 71,518799,JUNIOR COLLEGE,103.936990723441,1.37633346909682
TAMPINES NORTH PRIMARY SCHOOL,30   TAMPINES AVENUE 9,529565,PRIMARY,103.948768900518,1.36048786025607
TAMPINES PRIMARY SCHOOL,250  TAMPINES STREET 12,529426,PRIMARY,103.943573098509,1.3504863946694
TAMPINES SECONDARY SCHOOL,252  TAMPINES ST 12,529427,SECONDARY,103.944263709507,1.34926094811197
TANJONG KATONG GIRLS' SCHOOL,20   Dunman Lane,439272,SECONDARY,103.896107204542,1.3075626184394
TANJONG KATONG PRIMARY SCHOOL,10   Seraya Road,437259,PRIMARY,103.899999965407,1.30498489044822
TANJONG KATONG SECONDARY SCHOOL,130  HAIG ROAD,438796,SECONDARY,103.897225196199,1.30873515955341
TAO NAN SCHOOL,49   MARINE CRESCENT,449761,PRIMARY,103.911553152326,1.30528528687321
TECK GHEE PRIMARY SCHOOL,1    ANG MO KIO STREET 32,569299,PRIMARY,103.851009800453,1.36565018546903
TECK WHYE PRIMARY SCHOOL,11   TECK WHYE WALK,688261,PRIMARY,103.753924558586,1.38388660469396
TELOK KURAU PRIMARY SCHOOL,50   BEDOK RESERVOIR RD,479239,PRIMARY,103.911005345855,1.33109611001931
TEMASEK JUNIOR COLLEGE,2   TAMPINES AVENUE 9,529564,MIXED LEVELS,103.956185936394,1.35728017255861
TEMASEK PRIMARY SCHOOL,501  BEDOK SOUTH AVE 3,469300,PRIMARY,103.94575943784,1.31720341663064
TEMASEK SECONDARY SCHOOL,600  UPPER EAST COAST ROAD,465561,SECONDARY,103.947564112022,1.31591673150616
TOWNSVILLE PRIMARY SCHOOL,3    ANG MO KIO AVE 10,569730,PRIMARY,103.853768994775,1.35994649477568
UNITY PRIMARY SCHOOL,21   CHOA CHU KANG CRESCENT,688268,PRIMARY,103.746801233973,1.40278303219036
UNITY SECONDARY SCHOOL,20   CHOA CHU KANG STREET 62,689143,SECONDARY,103.74602091483,1.40001524119441
VALOUR PRIMARY SCHOOL,49   Punggol Central,828728,PRIMARY,103.898762173662,1.40744168163777
VICTORIA JUNIOR COLLEGE,20   MARINE VISTA,449035,JUNIOR COLLEGE,103.919982704149,1.30670174177479
VICTORIA SCHOOL,2    SIGLAP LINK,448880,SECONDARY,103.927980966639,1.3087130270751
WATERWAY PRIMARY SCHOOL,70   Punggol Drive,828802,PRIMARY,103.918585924582,1.39889261226315
WELLINGTON PRIMARY SCHOOL,10   WELLINGTON CIRCLE,757702,PRIMARY,103.822516208087,1.45168517614776
WEST GROVE PRIMARY SCHOOL,1    JURONG WEST ST 72,NIL,PRIMARY,103.698067375909,1.3483403539896
WEST SPRING PRIMARY SCHOOL,60   Bukit Panjang Ring Road,679946,PRIMARY,103.76639772288,1.38917971808454
WEST SPRING SECONDARY SCHOOL,61   SENJA  ROAD,677737,SECONDARY,103.760128840155,1.38782283303782
WEST VIEW PRIMARY SCHOOL,31   SENJA ROAD,677742,PRIMARY,103.760273432258,1.38378546546228
WESTWOOD PRIMARY SCHOOL,1    Jurong West Street 73,649188,PRIMARY,103.700467520791,1.3477109654722
WESTWOOD SECONDARY SCHOOL,11   JURONG WEST STREET 25,648350,SECONDARY,103.701772102139,1.35373698510994
WHITE SANDS PRIMARY SCHOOL,2    PASIR RIS ST 11,510110,PRIMARY,103.956300375904,1.36877568746945
WHITLEY SECONDARY SCHOOL,30   BISHAN STREET 24,579747,SECONDARY,103.842552378136,1.35505208480649
WOODGROVE PRIMARY SCHOOL,2    WOODLANDS DRIVE 14,738079,PRIMARY,103.79023031392,1.43273620725049
WOODGROVE SECONDARY SCHOOL,3    WOODLANDS AVENUE 6,738990,SECONDARY,103.79604758539,1.42831828137013
WOODLANDS PRIMARY SCHOOL,10   WOODLANDS DRIVE 50,738853,PRIMARY,103.791791282236,1.43658270720199
WOODLANDS RING PRIMARY SCHOOL,11   WOODLANDS RING ROAD,738240,PRIMARY,103.79741434351,1.43485179380236
WOODLANDS RING SECONDARY SCHOOL,21   WOODLANDS AVENUE 1,739062,SECONDARY,103.777625748539,1.43070452883799
WOODLANDS SECONDARY SCHOOL,11   MARSILING ROAD,739111,SECONDARY,103.774586410437,1.43912528141356
XINGHUA PRIMARY SCHOOL,45   HOUGANG AVENUE 1,538882,PRIMARY,103.890216355459,1.35799653782463
XINGNAN PRIMARY SCHOOL,5    JURONG WEST STREET 91,649036,PRIMARY,103.687588478681,1.34270639669225
XINMIN PRIMARY SCHOOL,9    HOUGANG AVENUE 8,538784,PRIMARY,103.88280991785,1.37176798317468
XINMIN SECONDARY SCHOOL,11   HOUGANG AVENUE 8,538789,SECONDARY,103.88305161385,1.37255884700002
XISHAN PRIMARY SCHOOL,8    YISHUN STREET 21,768611,PRIMARY,103.837755319448,1.43347186925064
YANGZHENG PRIMARY SCHOOL,15   SERANGOON AVENUE 3,556108,PRIMARY,103.868467129954,1.3489768083841
YEW TEE PRIMARY SCHOOL,10   CHOA CHU KANG ST 64,689100,PRIMARY,103.751817992962,1.39672603497195
YIO CHU KANG PRIMARY SCHOOL,1    HOUGANG STREET 51,538720,PRIMARY,103.885643682171,1.37793264345276
YIO CHU KANG SECONDARY SCHOOL,3063 ANG MO KIO AVENUE 5,569868,SECONDARY,103.84213696352,1.37797597740925
YISHUN INNOVA JUNIOR COLLEGE,3    YISHUN RING ROAD,768675,JUNIOR COLLEGE,103.83003171149,1.42426692572335
YISHUN PRIMARY SCHOOL,500  YISHUN RING ROAD,768679,PRIMARY,103.834050796658,1.43397617334964
YISHUN SECONDARY SCHOOL,4    YISHUN STREET 71,768516,SECONDARY,103.828764316679,1.42813324276086
YISHUN TOWN SECONDARY SCHOOL,6    YISHUN STREET 21,768610,SECONDARY,103.838094226361,1.43232156717386
YU NENG PRIMARY SCHOOL,56   BEDOK NORTH ST 3,469623,PRIMARY,103.932015036296,1.33398037894072
YUAN CHING SECONDARY SCHOOL,103  YUAN CHING ROAD,618654,SECONDARY,103.72089870437,1.34200635764467
YUHUA PRIMARY SCHOOL,158  JURONG EAST STREET 24,609558,PRIMARY,103.740861148879,1.34291981622016
YUHUA SECONDARY SCHOOL,35   JURONG WEST STREET 41,649406,SECONDARY,103.722687235839,1.34718626876968
YUMIN PRIMARY SCHOOL,3    TAMPINES STREET 21,529393,PRIMARY,103.950551091373,1.35131569890862
YUSOF ISHAK SECONDARY SCHOOL,11   BUKIT BATOK STREET 25,658712,SECONDARY,103.760159353985,1.34235172835604
YUYING SECONDARY SCHOOL,47   HOUGANG AVENUE 1,538884,SECONDARY,103.890194755287,1.35713595302467
ZHANGDE PRIMARY SCHOOL,51   Jalan Membina,169485,PRIMARY,103.825951884637,1.28421153855474
ZHENGHUA PRIMARY SCHOOL,9    Fajar Road,679002,PRIMARY,103.76970317201,1.37942873617052
ZHENGHUA SECONDARY SCHOOL,91   SENJA ROAD,670628,SECONDARY,103.760410617887,1.38512867383046
ZHONGHUA PRIMARY SCHOOL,12   SERANGOON AVENUE 4,556095,PRIMARY,103.869712517383,1.36026072476019
ZHONGHUA SECONDARY SCHOOL,13   SERANGOON AVENUE 3,556123,SECONDARY,103.869430481414,1.34840720846208
